STARLINK-3682           
1 52140U 22029BE  26068.38441111  .00000541  00000+0  52078-4 0  9997
2 52140  53.2170  70.4893 0001435  76.5583 283.5569 15.08848073220893
DISKSAT B               
1 67220U 25305B   26068.81497770  .00012481  00000+0  82401-3 0  9990
2 67220  45.0018 250.2098 0003783 311.4052  48.6498 15.07484556 12311
